$$SOE
2460721.500000000, A.D. 2025-Feb-15 00:00:00.0000, 4.570708109237970E+08, -2.298592772103628E+08, 5.459627347151326E+07,
2460728.500000000, A.D. 2025-Feb-22 00:00:00.0000, 4.614143665333585E+08, -2.204948785641207E+08, 5.423976704786959E+07,
2460735.500000000, A.D. 2025-Mar-01 00:00:00.0000, 4.655932272309003E+08, -2.110518309666459E+08, 5.386389778003433E+07,
2460742.500000000, A.D. 2025-Mar-08 00:00:00.0000, 4.696056761257903E+08, -2.015334010470442E+08, 5.346877308089836E+07,
2460749.500000000, A.D. 2025-Mar-15 00:00:00.0000, 4.734500759648783E+08, -1.919428998856358E+08, 5.305451026229779E+07,
2460756.500000000, A.D. 2025-Mar-22 00:00:00.0000, 4.771248685210539E+08, -1.822836801873210E+08, 5.262123672859447E+07,
2460763.500000000, A.D. 2025-Mar-29 00:00:00.0000, 4.806285752577515E+08, -1.725591356406205E+08, 5.216908984858961E+07,
2460770.500000000, A.D. 2025-Apr-05 00:00:00.0000, 4.839597995904542E+08, -1.627726993277262E+08, 5.169821673198125E+07,
2460777.500000000, A.D. 2025-Apr-12 00:00:00.0000, 4.871172288161672E+08, -1.529278410858137E+08, 5.120877409537072E+07,
2460784.500000000, A.D. 2025-Apr-19 00:00:00.0000, 4.900996355208201E+08, -1.430280647056407E+08, 5.070092816287343E+07,
2460791.500000000, A.D. 2025-Apr-26 00:00:00.0000, 4.929058787335205E+08, -1.330769051752479E+08, 5.017485455975130E+07,
2460798.500000000, A.D. 2025-May-03 00:00:00.0000, 4.955349049388722E+08, -1.230779259544436E+08, 4.963073819020035E+07,
2460805.500000000, A.D. 2025-May-10 00:00:00.0000, 4.979857489738464E+08, -1.130347162764478E+08, 4.906877309746328E+07,
2460812.500000000, A.D. 2025-May-17 00:00:00.0000, 5.002575348441421E+08, -1.029508885230265E+08, 4.848916229970434E+07,
2460819.500000000, A.D. 2025-May-24 00:00:00.0000, 5.023494766322250E+08, -9.283007573309834E+07, 4.789211758140218E+07,
2460826.500000000, A.D. 2025-May-31 00:00:00.0000, 5.042608799129747E+08, -8.267592893912712E+07, 4.727785922747318E+07,
2460833.500000000, A.D. 2025-Jun-07 00:00:00.0000, 5.059911432749997E+08, -7.249211313123922E+07, 4.664661583571576E+07,
2460840.500000000, A.D. 2025-Jun-14 00:00:00.0000, 5.075397575839658E+08, -6.228230252134188E+07, 4.599862437076703E+07,
2460847.500000000, A.D. 2025-Jun-21 00:00:00.0000, 5.089063042053442E+08, -5.205017838540870E+07, 4.533413008124980E+07,
2460854.500000000, A.D. 2025-Jun-28 00:00:00.0000, 5.100904553138294E+08, -4.179942772550008E+07, 4.465338613759685E+07,
2460861.500000000, A.D. 2025-Jul-05 00:00:00.0000, 5.110919747722672E+08, -3.153374060056454E+07, 4.395665330622426E+07,
2460868.500000000, A.D. 2025-Jul-12 00:00:00.0000, 5.119107183893733E+08, -2.125680693701160E+07, 4.324419970392269E+07,
2460875.500000000, A.D. 2025-Jul-19 00:00:00.0000, 5.125466337461234E+08, -1.097231339960502E+07, 4.251630056847768E+07,
2460882.500000000, A.D. 2025-Jul-26 00:00:00.0000, 5.129997598013731E+08, -6.839403841422889E+05, 4.177323802208687E+07,
2460889.500000000, A.D. 2025-Aug-02 00:00:00.0000, 5.132702263436237E+08, 9.604640885327717E+06, 4.101530082399525E+07,
2460896.500000000, A.D. 2025-Aug-09 00:00:00.0000, 5.133582533150223E+08, 1.988977113580996E+07, 4.024278410990860E+07,
2460903.500000000, A.D. 2025-Aug-16 00:00:00.0000, 5.132641500880365E+08, 3.016780563328043E+07, 3.945598910700193E+07,
2460910.500000000, A.D. 2025-Aug-23 00:00:00.0000, 5.129883149909207E+08, 4.043511659045300E+07, 3.865522279999617E+07,
2460917.500000000, A.D. 2025-Aug-30 00:00:00.0000, 5.125312354135221E+08, 5.068809610322902E+07, 3.784079757723279E+07,
2460924.500000000, A.D. 2025-Sep-06 00:00:00.0000, 5.118934870779845E+08, 6.092316061197008E+07, 3.701303106940786E+07,
2460931.500000000, A.D. 2025-Sep-13 00:00:00.0000, 5.110757308081416E+08, 7.113675440063341E+07, 3.617224613242475E+07,
2460938.500000000, A.D. 2025-Sep-20 00:00:00.0000, 5.100787100748073E+08, 8.132535048414788E+07, 3.531877054052674E+07,
2460945.500000000, A.D. 2025-Sep-27 00:00:00.0000, 5.089032503777242E+08, 9.148545199124277E+07, 3.445293654735060E+07,
2460952.500000000, A.D. 2025-Oct-04 00:00:00.0000, 5.075502584503073E+08, 1.016135945787489E+08, 3.357508054455917E+07,
2460959.500000000, A.D. 2025-Oct-11 00:00:00.0000, 5.060207209172328E+08, 1.117063489314511E+08, 3.268554277593473E+07,
2460966.500000000, A.D. 2025-Oct-18 00:00:00.0000, 5.043157026924761E+08, 1.217603230704483E+08, 3.178466705909551E+07,
2460973.500000000, A.D. 2025-Oct-25 00:00:00.0000, 5.024363452614827E+08, 1.317721644788242E+08, 3.087280050347920E+07,
2460980.500000000, A.D. 2025-Nov-01 00:00:00.0000, 5.003838648913563E+08, 1.417385620583219E+08, 2.995029322274369E+07,
2460987.500000000, A.D. 2025-Nov-08 00:00:00.0000, 4.981595508084116E+08, 1.516562478841105E+08, 2.901749803631630E+07,
2460994.500000000, A.D. 2025-Nov-15 00:00:00.0000, 4.957647634960629E+08, 1.615219986976813E+08, 2.807477014215884E+07,
2461001.500000000, A.D. 2025-Nov-22 00:00:00.0000, 4.932009335207282E+08, 1.713326373563438E+08, 2.712246674208690E+07,
2461008.500000000, A.D. 2025-Nov-29 00:00:00.0000, 4.904695607365381E+08, 1.810850353727646E+08, 2.616094672659405E+07,
2461015.500000000, A.D. 2025-Dec-06 00:00:00.0000, 4.875722115954318E+08, 1.907761164083569E+08, 2.519057061729540E+07,
2461022.500000000, A.D. 2025-Dec-13 00:00:00.0000, 4.845105150023932E+08, 2.004028573503599E+08, 2.421170045234187E+07,
2461029.500000000, A.D. 2025-Dec-20 00:00:00.0000, 4.812861602144198E+08, 2.099622879946066E+08, 2.322469937825486E+07,
2461036.500000000, A.D. 2025-Dec-27 00:00:00.0000, 4.779008957130693E+08, 2.194514919247150E+08, 2.222993125858939E+07,
2461043.500000000, A.D. 2026-Jan-03 00:00:00.0000, 4.743565275954037E+08, 2.288676079727325E+08, 2.122776038331676E+07,
2461050.500000000, A.D. 2026-Jan-10 00:00:00.0000, 4.706549175976001E+08, 2.382078315833171E+08, 2.021855121380310E+07,
2461057.500000000, A.D. 2026-Jan-17 00:00:00.0000, 4.667979809882585E+08, 2.474694159911433E+08, 1.920266813498890E+07,
2461064.500000000, A.D. 2026-Jan-24 00:00:00.0000, 4.627876844136914E+08, 2.566496732357516E+08, 1.818047520988818E+07,
2461071.500000000, A.D. 2026-Jan-31 00:00:00.0000, 4.586260437229118E+08, 2.657459750082968E+08, 1.715233593405916E+07,
2461078.500000000, A.D. 2026-Feb-07 00:00:00.0000, 4.543151218381100E+08, 2.747557532750003E+08, 1.611861298011994E+07,
2461085.500000000, A.D. 2026-Feb-14 00:00:00.0000, 4.498570269280913E+08, 2.836765006642724E+08, 1.507966790821314E+07,
2461092.500000000, A.D. 2026-Feb-21 00:00:00.0000, 4.452539112765058E+08, 2.925057711963788E+08, 1.403586085428393E+07,
2461099.500000000, A.D. 2026-Feb-28 00:00:00.0000, 4.405079697631251E+08, 3.012411825104848E+08, 1.298755039009461E+07,
2461106.500000000, A.D. 2026-Mar-07 00:00:00.0000, 4.356214359024730E+08, 3.098804176415058E+08, 1.193509358474758E+07,
2461113.500000000, A.D. 2026-Mar-14 00:00:00.0000, 4.305965782201054E+08, 3.184212240165331E+08, 1.087884582279386E+07,
2461120.500000000, A.D. 2026-Mar-21 00:00:00.0000, 4.254356987528834E+08, 3.268614125695886E+08, 9.819160452242732E+06,
2461127.500000000, A.D. 2026-Mar-28 00:00:00.0000, 4.201411316654123E+08, 3.351988580044920E+08, 8.756388530920342E+06,
2461134.500000000, A.D. 2026-Apr-04 00:00:00.0000, 4.147152413806583E+08, 3.434314992425724E+08, 7.690878647900358E+06,
2461141.500000000, A.D. 2026-Apr-11 00:00:00.0000, 4.091604205010262E+08, 3.515573396983017E+08, 6.622976765815437E+06,
2461148.500000000, A.D. 2026-Apr-18 00:00:00.0000, 4.034790876821291E+08, 3.595744473793873E+08, 5.553026069246545E+06,
2461155.500000000, A.D. 2026-Apr-25 00:00:00.0000, 3.976736855084054E+08, 3.674809548291101E+08, 4.481366816491947E+06,
2461162.500000000, A.D. 2026-May-02 00:00:00.0000, 3.917466784045766E+08, 3.752750588840687E+08, 3.408336189694107E+06,
2461169.500000000, A.D. 2026-May-09 00:00:00.0000, 3.857005507105780E+08, 3.829550201836972E+08, 2.334268126611829E+06,
2461176.500000000, A.D. 2026-May-16 00:00:00.0000, 3.795378053006727E+08, 3.905191625724176E+08, 1.259493110705346E+06,
2461183.500000000, A.D. 2026-May-23 00:00:00.0000, 3.732609628008888E+08, 3.979658734188199E+08, 1.843379982296228E+05,
2461190.500000000, A.D. 2026-May-30 00:00:00.0000, 3.668725593271861E+08, 4.052936051729945E+08, -8.908739010402560E+05,
2461197.500000000, A.D. 2026-Jun-06 00:00:00.0000, 3.603751424275633E+08, 4.125008748916300E+08, -1.965822727894366E+06,
2461204.500000000, A.D. 2026-Jun-13 00:00:00.0000, 3.537712688962942E+08, 4.195862619335287E+08, -3.040192282790035E+06,
2461211.500000000, A.D. 2026-Jun-20 00:00:00.0000, 3.470635039608158E+08, 4.265484067537503E+08, -4.113670255317330E+06,
2461218.500000000, A.D. 2026-Jun-27 00:00:00.0000, 3.402544201432928E+08, 4.333860104586323E+08, -5.185948346403450E+06,
2461225.500000000, A.D. 2026-Jul-04 00:00:00.0000, 3.333465957972537E+08, 4.400978343494611E+08, -6.256722346945912E+06,
2461232.500000000, A.D. 2026-Jul-11 00:00:00.0000, 3.263426135738423E+08, 4.466826993256187E+08, -7.325692207340598E+06,
2461239.500000000, A.D. 2026-Jul-18 00:00:00.0000, 3.192450589109315E+08, 4.531394851755883E+08, -8.392562104708493E+06,
2461246.500000000, A.D. 2026-Jul-25 00:00:00.0000, 3.120565185699195E+08, 4.594671297611333E+08, -9.457040510218382E+06,
2461253.500000000, A.D. 2026-Aug-01 00:00:00.0000, 3.047795792685422E+08, 4.656646280491158E+08, -1.051884026519182E+07,
2461260.500000000, A.D. 2026-Aug-08 00:00:00.0000, 2.974168266247343E+08, 4.717310309577512E+08, -1.157767868893543E+07,
2461267.500000000, A.D. 2026-Aug-15 00:00:00.0000, 2.899708448268427E+08, 4.776654444704343E+08, -1.263327771985966E+07,
2461274.500000000, A.D. 2026-Aug-22 00:00:00.0000, 2.824442162693743E+08, 4.834670302405354E+08, -1.368536392057431E+07,
2461281.500000000, A.D. 2026-Aug-29 00:00:00.0000, 2.748395188642640E+08, 4.891350063158643E+08, -1.473366824932551E+07,
2461288.500000000, A.D. 2026-Sep-05 00:00:00.0000, 2.671593231602073E+08, 4.946686451177048E+08, -1.577792602790847E+07,
$$EOE